STARLINK-30977
1 58459U 23183Y   26061.16668981  .01723526  00000+0  86913-1 0  9991
2 58459  42.9994  83.9109 0001280 286.7568 152.6545 15.13254168  5811
